*******************************************************************************
JPL/HORIZONS                306 Unitas (A891 EA)           2023-Sep-04 11:05:34
Rec #:     306 (+COV) Soln.date: 2023-Aug-23_05:42:32   # obs: 4125 (1891-2023)
 
IAU76/J2000 helio. ecliptic osc. elements (au, days, deg., period=Julian yrs):
 
  EPOCH=  2457590.5 ! 2016-Jul-21.00 (TDB)         Residual RMS= .36067
   EC= .1513843093539861   QR= 2.000926418683831   TP= 2457273.6712807054
   OM= 141.9116140043413   W=  168.0106473914347   IN= 7.277860090135814
   A= 2.357871107898811    MA= 86.24789899004554   ADIST= 2.71481579711379
   PER= 3.62066            N= .272222478           ANGMOM= .026110017
   DAN= 2.70429            DDN= 2.00668            L= 310.0160915
   B= 1.5079411            MOID= .98682702         TP= 2015-Sep-08.1712807054
 
Asteroid physical parameters (km, seconds, rotational period in hours):
   GM= n.a.                RAD= 23.6               ROTPER= 8.736
   H= 8.84                 G= .150                 B-V= .864
                           ALBEDO= .201            STYP= S

ASTEROID comments: 
1: soln ref.= JPL#61, OCC=0
2: source=ORB
*******************************************************************************


*******************************************************************************
Ephemeris / API_USER Mon Sep  4 11:05:34 2023 Pasadena, USA      / Horizons
*******************************************************************************
Target body name: 306 Unitas (A891 EA)            {source: JPL#61}
Center body name: Solar System Barycenter (0)     {source: DE441}
Center-site name: BODY CENTER
*******************************************************************************
Start time      : A.D. 2023-Aug-12 00:00:00.0000 TDB
Stop  time      : A.D. 2023-Aug-13 00:00:00.0000 TDB
Step-size       : 2880 minutes
*******************************************************************************
Center geodetic : 0.0, 0.0, 0.0                   {E-lon(deg),Lat(deg),Alt(km)}
Center cylindric: 0.0, 0.0, 0.0                   {E-lon(deg),Dxy(km),Dz(km)}
Center radii    : (undefined)
Small perturbers: Yes                             {source: SB441-N16}
Output units    : KM-S
Calendar mode   : Mixed Julian/Gregorian
Output type     : GEOMETRIC cartesian states
Output format   : 2 (position and velocity)
Reference frame : Ecliptic of J2000.0
*******************************************************************************
Initial IAU76/J2000 heliocentric ecliptic osculating elements (au, days, deg.):
  EPOCH=  2457590.5 ! 2016-Jul-21.00 (TDB)         Residual RMS= .36067        
   EC= .1513843093539861   QR= 2.000926418683831   TP= 2457273.6712807054      
   OM= 141.9116140043413   W=  168.0106473914347   IN= 7.277860090135814       
  Equivalent ICRF heliocentric cartesian coordinates (au, au/d):
   X= 1.411021945076444E+00  Y= 1.866299328266964E+00  Z= 4.794916723420243E-01
  VX=-7.793408532790131E-03 VY= 7.266493950000196E-03 VZ= 2.960208542086078E-03
Asteroid physical parameters (km, seconds, rotational period in hours):        
   GM= n.a.                RAD= 23.6               ROTPER= 8.736               
   H= 8.84                 G= .150                 B-V= .864                   
                           ALBEDO= .201            STYP= S                     
*******************************************************************************
JDTDB
   X     Y     Z
   VX    VY    VZ
*******************************************************************************
$$SOE
2460168.500000000 = A.D. 2023-Aug-12 00:00:00.0000 TDB 
 X = 2.763300602576663E+08 Y = 1.919020210833746E+08 Z =-4.116036032511188E+07
 VX=-8.968240777292174E+00 VY= 1.794526340673024E+01 VZ=-1.094876592785118E+00
$$EOE
*******************************************************************************
 
TIME

  Barycentric Dynamical Time ("TDB" or T_eph) output was requested. This
continuous coordinate time is equivalent to the relativistic proper time
of a clock at rest in a reference frame co-moving with the solar system
barycenter but outside the system's gravity well. It is the independent
variable in the solar system relativistic equations of motion.

  TDB runs at a uniform rate of one SI second per second and is independent
of irregularities in Earth's rotation.
 
CALENDAR SYSTEM

  Mixed calendar mode was active such that calendar dates after AD 1582-Oct-15
(if any) are in the modern Gregorian system. Dates prior to 1582-Oct-5 (if any)
are in the Julian calendar system, which is automatically extended for dates
prior to its adoption on 45-Jan-1 BC.  The Julian calendar is useful for
matching historical dates. The Gregorian calendar more accurately corresponds
to the Earth's orbital motion and seasons. A "Gregorian-only" calendar mode is
available if such physical events are the primary interest.

REFERENCE FRAME AND COORDINATES

  Ecliptic at the standard reference epoch

    Reference epoch: J2000.0
    X-Y plane: adopted Earth orbital plane at the reference epoch
               Note: IAU76 obliquity of 84381.448 arcseconds wrt ICRF X-Y plane
    X-axis   : ICRF
    Z-axis   : perpendicular to the X-Y plane in the directional (+ or -) sense
               of Earth's north pole at the reference epoch.

  Symbol meaning:

    JDTDB    Julian Day Number, Barycentric Dynamical Time
      X      X-component of position vector (km)
      Y      Y-component of position vector (km)
      Z      Z-component of position vector (km)
      VX     X-component of velocity vector (km/sec)                           
      VY     Y-component of velocity vector (km/sec)                           
      VZ     Z-component of velocity vector (km/sec)                           

ABERRATIONS AND CORRECTIONS

 Geometric state vectors have NO corrections or aberrations applied.

Computations by ...

    Solar System Dynamics Group, Horizons On-Line Ephemeris System
    4800 Oak Grove Drive, Jet Propulsion Laboratory
    Pasadena, CA  91109   USA

    General site: https://ssd.jpl.nasa.gov/
    Mailing list: https://ssd.jpl.nasa.gov/email_list.html
    System news : https://ssd.jpl.nasa.gov/horizons/news.html
    User Guide  : https://ssd.jpl.nasa.gov/horizons/manual.html
    Connect     : browser        https://ssd.jpl.nasa.gov/horizons/app.html#/x
                  API            https://ssd-api.jpl.nasa.gov/doc/horizons.html
                  command-line   telnet ssd.jpl.nasa.gov 6775
                  e-mail/batch   https://ssd.jpl.nasa.gov/ftp/ssd/hrzn_batch.txt
                  scripts        https://ssd.jpl.nasa.gov/ftp/ssd/SCRIPTS
    Author      : Jon.D.Giorgini@jpl.nasa.gov
*******************************************************************************
